PROBA-1                 
1 26958U 01049B   26204.30996958  .00003316  00000+0  21491-3 0  9999
2 26958  97.9611 214.1075 0054778   2.3616 357.7859 15.07641435349066
CUTE-1 (CO-55)          
1 27844U 03031E   26204.00389230  .00000238  00000+0  12202-3 0  9993
2 27844  98.6747 212.1136 0010851  82.6312 277.6100 14.24355144196777
CUBESAT XI-IV (CO-57)   
1 27848U 03031J   26204.01036090  .00000205  00000+0  10894-3 0  9990
2 27848  98.6778 211.8037 0010712  99.0689 261.1702 14.23637690196477
APRIZESAT 4             
1 35684U 09041D   26204.19770737  .00000666  00000+0  85909-4 0  9997
2 35684  98.1397 280.2340 0042754 203.1140 156.8151 14.83922373916709
APRIZESAT 3             
1 35686U 09041F   26204.00959548  .00000442  00000+0  43698-4 0  9999
2 35686  98.2106 358.9609 0060656 309.6515  49.9362 14.96320600921734
PROBA-2                 
1 36037U 09059B   26204.07240492  .00000164  00000+0  48647-4 0  9997
2 36037  98.2464  26.9303 0013575 164.5615 195.5999 14.54876107886749
APRIZESAT 5             
1 37792U 11044E   26204.28562761  .00000673  00000+0  92250-4 0  9996
2 37792  98.2447 138.3514 0050790 245.9378 113.6515 14.81137014804136
APRIZESAT 6             
1 37793U 11044F   26203.31968863  .00000581  00000+0  89357-4 0  9995
2 37793  98.2329 114.5327 0042493 335.3434 147.2526 14.76964313802331
PROBA-V                 
1 39159U 13021A   26203.89398043  .00000052  00000+0  40810-4 0  9994
2 39159  98.3611 180.7425 0004939  41.6695 318.4860 14.23604460686190
APRIZESAT 7             
1 39416U 13066A   26204.31209186  .00000967  00000+0  10065-3 0  9999
2 39416  97.7725 157.0178 0037388  91.4811 269.0691 14.91633577686610
APRIZESAT 8             
1 39425U 13066K   26204.26019034  .00000715  00000+0  83087-4 0  9990
2 39425  97.8232 151.2291 0046175 165.3498 194.9069 14.87705940685031
BUGSAT-1 (TITA)         
1 40014U 14033E   26204.27801036  .00007814  00000+0  40709-3 0  9993
2 40014  98.0424 298.9466 0028703  59.5702 300.8360 15.15945185661300
SAUDISAT 4              
1 40016U 14033G   26204.16481900  .00000460  00000+0  67432-4 0  9990
2 40016  97.7628 349.0652 0043690 317.6757  42.1087 14.79581727651396
APRIZESAT 9             
1 40018U 14033J   26204.31607007  .00000539  00000+0  86233-4 0  9994
2 40018  97.9103 336.6404 0067473  84.3676 276.5222 14.74260317648886
APRIZESAT 10            
1 40019U 14033K   26203.29662844  .00000521  00000+0  89313-4 0  9994
2 40019  97.9688 329.4807 0079274 160.7576 199.6654 14.70917447647413
TECHDEMOSAT-1 (TDS-1)   
1 40076U 14037H   26203.46190135  .00007761  00000+0  43438-3 0  9999
2 40076  98.3838 199.1875 0007438 137.8138 222.3665 15.13751238653568
TECHNOSAT               
1 42829U 17042E   26204.01787719  .00001980  00000+0  14284-3 0  9992
2 42829  97.4322   0.3247 0016729 337.0298  23.0179 15.05139941492091
FLYING LAPTOP           
1 42831U 17042G   26204.31128138  .00003277  00000+0  25791-3 0  9998
2 42831  97.4850 358.4943 0019179   6.7641 353.3839 15.01350719491875
HAWK-A                  
1 43765U 18099H   26204.11237748  .00007566  00000+0  30033-3 0  9994
2 43765  97.3896 255.8841 0035432 156.4668 203.8200 15.25042895418576
HAWK-B                  
1 43794U 18099AN  26204.11147363  .00006635  00000+0  27966-3 0  9996
2 43794  97.3944 255.2226 0032171 174.1924 185.9692 15.23183557418509
HAWK-C                  
1 43799U 18099AT  26204.13763823  .00008782  00000+0  31061-3 0  9994
2 43799  97.3870 257.0009 0041038 156.0749 204.2410 15.28587276419401
SALSAT                  
1 46495U 20068K   26204.24596903  .00007467  00000+0  25762-3 0  9994
2 46495  97.8868 209.5206 0010069 165.1541 194.9995 15.30255611320874
HAWK-2C                 
1 47502U 21006CT  26204.07437173  .00006625  00000+0  19686-3 0  9994
2 47502  97.2263 247.6735 0008584  78.5306 281.6901 15.35060777305003
HAWK-2A                 
1 47505U 21006CW  26204.07647556  .00008004  00000+0  23708-3 0  9998
2 47505  97.2307 248.3751 0008147  82.1128 278.1040 15.35092659305008
HAWK-2B                 
1 47508U 21006CZ  26204.06934263  .00007867  00000+0  23212-3 0  9990
2 47508  97.2178 246.6431 0008688  80.4800 279.7426 15.35218400305000
HAWK-3B                 
1 48931U 21059BE  26204.12022624  .00048781  00000+0  36650-3 0  9995
2 48931  97.6638  44.3065 0005087 171.9825 188.1520 15.72436622283490
HAWK-3C                 
1 48948U 21059BX  26204.11991396  .00051915  00000+0  38987-3 0  9991
2 48948  97.6753  50.0517 0005424 171.4962 188.6393 15.72431800283490
HAWK-3A                 
1 48957U 21059CG  26204.11978748  .00051820  00000+0  38891-3 0  9996
2 48957  97.6701  47.2287 0005636 177.0852 183.0445 15.72445401283499
HAWK-5C                 
1 52754U 22057Y   26203.89243318  .00020726  00000+0  33930-3 0  9997
2 52754  97.6627   5.9014 0002354 306.9975  53.1061 15.52531107231882
HAWK-5B                 
1 52756U 22057AA  26203.89226676  .00021804  00000+0  35679-3 0  9997
2 52756  97.6637   4.2560 0003030 293.6813  66.4121 15.52530461231884
